SCD 1                   
1 22490U 93009B   26200.89308296  .00000298  00000+0  30603-4 0  9997
2 22490  24.9708   5.6350 0042037 123.9966  29.1906 14.46129704765856
TECHSAT 1B (GO-32)      
1 25397U 98043D   26201.92144205  .00000025  00000+0  31066-4 0  9994
2 25397  99.0090 195.5342 0002306 105.8843 254.2589 14.24434052456137
SCD 2                   
1 25504U 98060A   26201.36582919  .00000267  00000+0  23850-4 0  9999
2 25504  24.9937 227.5486 0016975 113.3380 269.6052 14.45535699465133
DLR-TUBSAT              
1 25757U 99029B   26201.91179801  .00000029  00000+0  18971-4 0  9992
2 25757  98.6714 198.5287 0013078 245.8591 114.1237 14.52433989438143
TERRA                   
1 25994U 99068A   26201.91437725  .00000208  00000+0  51387-4 0  9997
2 25994  97.9437 250.1202 0003606 111.5815 300.9591 14.61126471414536
MAROC-TUBSAT            
1 27004U 01056D   26201.44452580 -.00000039  00000+0  89153-5 0  9991
2 27004  99.8103  18.9338 0020522  59.1404   6.4679 13.70263607230744
AQUA                    
1 27424U 02022A   26201.92046237  .00000468  00000+0  10298-3 0  9999
2 27424  98.4300 171.8823 0001312 102.2922 279.2908 14.62133804288209
SHIYAN-1 (SY-1)         
1 28220U 04012A   26201.77347035  .00007695  00000+0  23259-3 0  9998
2 28220  97.8673 282.0426 0004278 248.9091 111.1694 15.34533983216246
AURA                    
1 28376U 04026A   26201.87887622  .00000469  00000+0  10457-3 0  9995
2 28376  98.3433 158.6156 0001399  93.8472 266.2888 14.61373037171133
IRS-P5 (CARTOSAT-1)     
1 28649U 05017A   26201.69872495  .00000618  00000+0  67623-4 0  9995
2 28649  97.5306 223.2435 0001031  55.1525 304.9791 14.91125421148815
SINAH 1                 
1 28893U 05043D   26201.95021164  .00000182  00000+0  44000-4 0  9993
2 28893  98.2901 336.4786 0014798 165.7696 194.3926 14.64177849105468
RESURS-DK 1             
1 29228U 06021A   26201.41611342  .00000982  00000+0  61107-4 0  9992
2 29228  69.9301 253.5278 0007419 265.4127  94.6192 15.13330043107601
ARIRANG-2 (KOMPSAT-2)   
1 29268U 06031A   26201.98978172  .00000431  00000+0  89494-4 0  9994
2 29268  97.8322  24.8025 0013758 332.1165 179.6823 14.64678541 66426
LAPAN-TUBSAT            
1 29709U 07001A   26201.99033086 -.00000186  00000+0 -14623-4 0  9990
2 29709  98.1363 201.9792 0013639  77.1325 283.1412 14.85978832 56171
HAIYANG-1B              
1 31113U 07010A   26201.91616523  .00000059  00000+0  38313-4 0  9996
2 31113  98.3520 182.4571 0014800 100.2392 260.0461 14.31034308  5467
COSMO-SKYMED 1          
1 31598U 07023A   26201.95287999  .00002055  00000+0  18267-3 0  9995
2 31598  97.8855  34.0951 0001800  96.4397 263.7029 14.97240463 34847
TERRASAR-X              
1 31698U 07026A   26201.45521513  .00000429  00000+0  23629-4 0  9999
2 31698  97.4462 208.6875 0001654  86.3294 273.8130 15.19149077 58275
WORLDVIEW-1 (WV-1)      
1 32060U 07041A   26201.89960002  .00004021  00000+0  16602-3 0  9992
2 32060  97.3904 321.1729 0002091 183.2525 176.8699 15.24596982 48018
YAOGAN-3                
1 32289U 07055A   26201.95457735  .00000813  00000+0  88133-4 0  9995
2 32289  97.8142 231.4986 0001352  84.2622 275.8751 14.90891329 10906
COSMO-SKYMED 2          
1 32376U 07059A   26201.91632229  .00000217  00000+0  33867-4 0  9997
2 32376  97.8897  25.0267 0001468  93.9065 266.2316 14.82153355  7004
RADARSAT-2              
1 32382U 07061A   26201.97367855  .00000069  00000+0  43743-4 0  9992
2 32382  98.5790 208.4240 0001331  87.0662 273.0672 14.29984256970783
CARTOSAT-2A             
1 32783U 08021A   26201.93542515 -.00000241  00000+0 -25618-4 0  9993
2 32783  97.7612 249.4892 0012007   9.4733 350.6703 14.79278341983797
HUANJING 1A (HJ-1A)     
1 33320U 08041A   26201.94662549  .00000351  00000+0  48167-4 0  9998
2 33320  97.6709 186.4843 0019943  31.9995 328.2427 14.84056322963413
HUANJING 1B (HJ-1B)     
1 33321U 08041B   26201.93122508  .00000970  00000+0  12312-3 0  9993
2 33321  97.6545 189.5384 0037947  73.3875 287.1501 14.83372951963411
GEOEYE 1                
1 33331U 08042A   26201.89985434  .00000243  00000+0  54635-4 0  9993
2 33331  98.1322 275.4287 0003554 325.6365  34.4608 14.64652337955085
THEOS                   
1 33396U 08049A   26201.92850745  .00000073  00000+0  54022-4 0  9992
2 33396  98.5549 258.1136 0001114  93.8433 266.2872 14.20137052922752
COSMO-SKYMED 3          
1 33412U 08054A   26201.93887646  .00002087  00000+0  14286-3 0  9992
2 33412  97.8252  61.0670 0016361 146.8179 213.4077 15.07139545962024
YAOGAN-4                
1 33446U 08061A   26201.83034550  .00000609  00000+0  81046-4 0  9991
2 33446  97.9302 135.0937 0013388 326.5465  33.4902 14.83258280950651
GOSAT (IBUKI)           
1 33492U 09002A   26201.88853150  .00000380  00000+0  75471-4 0  9999
2 33492  98.0915 312.5520 0001091  91.1237 269.0093 14.67538119936403
DEIMOS-1                
1 35681U 09041A   26201.89601310  .00000435  00000+0  71382-4 0  9992
2 35681  97.7446 357.6696 0002783  83.8490 276.3037 14.75267994911852
